ONEWEB-0647             
1 56079U 23043AK  25352.26080286 -.00000077  00000+0 -23983-3 0  9991
2 56079  87.8997 295.3368 0001991  78.0409 282.0944 13.15549614132634
ONEWEB-0651             
1 56080U 23043AL  25352.25603760 -.00000069  00000+0 -21640-3 0  9999
2 56080  87.9000 295.3313 0001928  85.7543 274.3808 13.15546435133830
ONEWEB-0718             
1 56081U 23043AM  25352.25130036 -.00000114  00000+0 -33714-3 0  9997
2 56081  87.9000 295.3125 0001278  69.6797 290.4471 13.15549409132649
ONEWEB-0561             
1 56710U 23068A   25352.13904295  .00000119  00000+0  26143-3 0  9997
2 56710  87.9200 310.5574 0002295  85.1556 274.9839 13.20770084125608
ONEWEB-0668             
1 56711U 23068B   25352.25216246 -.00000002  00000+0 -38376-4 0  9998
2 56711  87.9059 264.7838 0001159  81.6045 278.5217 13.16597151127975
ONEWEB-0676             
1 56712U 23068C   25352.26009871 -.00000053  00000+0 -17349-3 0  9996
2 56712  87.9045 264.8037 0001870  82.3780 277.7564 13.16596287127893
ONEWEB-0677             
1 56713U 23068D   25352.27951619 -.00000053  00000+0 -16184-3 0  9990
2 56713  87.9211 310.5132 0001879  86.8514 273.2834 13.20771874125922
ONEWEB-0678             
1 56714U 23068E   25352.21960781  .00000104  00000+0  24273-3 0  9998
2 56714  87.9007 295.2949 0002059  72.6459 287.4896 13.15549544125491
ONEWEB-0679             
1 56715U 23068F   25352.21890538  .00000109  00000+0  25202-3 0  9999
2 56715  87.9040 264.7952 0001515  94.5634 265.5670 13.16594718127918
ONEWEB-0680             
1 56716U 23068G   25352.25796206  .00000050  00000+0  89415-4 0  9993
2 56716  87.9228 280.0480 0001280  89.6097 270.5183 13.21826146127195
ONEWEB-0681             
1 56717U 23068H   25352.23740013  .00000139  00000+0  30621-3 0  9999
2 56717  87.9218 280.0671 0002647  93.0937 267.0499 13.21825606127187
ONEWEB-0682             
1 56718U 23068J   25352.24574968  .00000027  00000+0  36930-4 0  9991
2 56718  87.8999 295.3038 0001447  90.4868 269.6428 13.15547698125666
ONEWEB-0683             
1 56719U 23068K   25352.26713683 -.00000079  00000+0 -24420-3 0  9992
2 56719  87.9005 295.2841 0001561  80.7113 279.4194 13.15550580125639
ONEWEB-0684             
1 56720U 23068L   25352.27505625  .00000064  00000+0  13622-3 0  9994
2 56720  87.9005 295.2769 0002530  45.3186 314.8150 13.15548202125469
ONEWEB-0686             
1 56721U 23068M   25352.25319836  .00007395  00000+0  19719-1 0  9995
2 56721  87.9034 264.8352 0000771  48.9598 311.1599 13.15117342127908
ONEWEB-0694             
1 56722U 23068N   25352.26167037 -.00000089  00000+0 -26598-3 0  9991
2 56722  87.9057 264.7651 0001239  81.1615 278.9656 13.16595211127960
