[{"OBJECT_NAME":"ONEWEB-0647","OBJECT_ID":"2023-043AK","EPOCH":"2025-12-18T06:15:33.367104","MEAN_MOTION":13.15549614,"ECCENTRICITY":0.00019915,"INCLINATION":87.8997,"RA_OF_ASC_NODE":295.3368,"ARG_OF_PERICENTER":78.0409,"MEAN_ANOMALY":282.0944,"EPHEMERIS_TYPE":0,"CLASSIFICATION_TYPE":"U","NORAD_CAT_ID":56079,"ELEMENT_SET_NO":999,"REV_AT_EPOCH":13263,"BSTAR":-0.00023982871,"MEAN_MOTION_DOT":-7.7e-7,"MEAN_MOTION_DDOT":0},{"OBJECT_NAME":"ONEWEB-0651","OBJECT_ID":"2023-043AL","EPOCH":"2025-12-18T06:08:41.648640","MEAN_MOTION":13.15546435,"ECCENTRICITY":0.00019283,"INCLINATION":87.9,"RA_OF_ASC_NODE":295.3313,"ARG_OF_PERICENTER":85.7543,"MEAN_ANOMALY":274.3808,"EPHEMERIS_TYPE":0,"CLASSIFICATION_TYPE":"U","NORAD_CAT_ID":56080,"ELEMENT_SET_NO":999,"REV_AT_EPOCH":13383,"BSTAR":-0.00021639897,"MEAN_MOTION_DOT":-6.9e-7,"MEAN_MOTION_DDOT":0},{"OBJECT_NAME":"ONEWEB-0718","OBJECT_ID":"2023-043AM","EPOCH":"2025-12-18T06:01:52.351104","MEAN_MOTION":13.15549409,"ECCENTRICITY":0.00012784,"INCLINATION":87.9,"RA_OF_ASC_NODE":295.3125,"ARG_OF_PERICENTER":69.6797,"MEAN_ANOMALY":290.4471,"EPHEMERIS_TYPE":0,"CLASSIFICATION_TYPE":"U","NORAD_CAT_ID":56081,"ELEMENT_SET_NO":999,"REV_AT_EPOCH":13264,"BSTAR":-0.00033713658,"MEAN_MOTION_DOT":-1.14e-6,"MEAN_MOTION_DDOT":0},{"OBJECT_NAME":"ONEWEB-0561","OBJECT_ID":"2023-068A","EPOCH":"2025-12-18T03:20:13.310880","MEAN_MOTION":13.20770084,"ECCENTRICITY":0.0002295,"INCLINATION":87.92,"RA_OF_ASC_NODE":310.5574,"ARG_OF_PERICENTER":85.1556,"MEAN_ANOMALY":274.9839,"EPHEMERIS_TYPE":0,"CLASSIFICATION_TYPE":"U","NORAD_CAT_ID":56710,"ELEMENT_SET_NO":999,"REV_AT_EPOCH":12560,"BSTAR":0.0002614267,"MEAN_MOTION_DOT":1.19e-6,"MEAN_MOTION_DDOT":0},{"OBJECT_NAME":"ONEWEB-0668","OBJECT_ID":"2023-068B","EPOCH":"2025-12-18T06:03:06.836544","MEAN_MOTION":13.16597151,"ECCENTRICITY":0.00011591,"INCLINATION":87.9059,"RA_OF_ASC_NODE":264.7838,"ARG_OF_PERICENTER":81.6045,"MEAN_ANOMALY":278.5217,"EPHEMERIS_TYPE":0,"CLASSIFICATION_TYPE":"U","NORAD_CAT_ID":56711,"ELEMENT_SET_NO":999,"REV_AT_EPOCH":12797,"BSTAR":-3.8376248e-5,"MEAN_MOTION_DOT":-2.0e-8,"MEAN_MOTION_DDOT":0},{"OBJECT_NAME":"ONEWEB-0676","OBJECT_ID":"2023-068C","EPOCH":"2025-12-18T06:14:32.528544","MEAN_MOTION":13.16596287,"ECCENTRICITY":0.00018703,"INCLINATION":87.9045,"RA_OF_ASC_NODE":264.8037,"ARG_OF_PERICENTER":82.378,"MEAN_ANOMALY":277.7564,"EPHEMERIS_TYPE":0,"CLASSIFICATION_TYPE":"U","NORAD_CAT_ID":56712,"ELEMENT_SET_NO":999,"REV_AT_EPOCH":12789,"BSTAR":-0.00017349482,"MEAN_MOTION_DOT":-5.3e-7,"MEAN_MOTION_DDOT":0},{"OBJECT_NAME":"ONEWEB-0677","OBJECT_ID":"2023-068D","EPOCH":"2025-12-18T06:42:30.198816","MEAN_MOTION":13.20771874,"ECCENTRICITY":0.00018792,"INCLINATION":87.9211,"RA_OF_ASC_NODE":310.5132,"ARG_OF_PERICENTER":86.8514,"MEAN_ANOMALY":273.2834,"EPHEMERIS_TYPE":0,"CLASSIFICATION_TYPE":"U","NORAD_CAT_ID":56713,"ELEMENT_SET_NO":999,"REV_AT_EPOCH":12592,"BSTAR":-0.00016183576,"MEAN_MOTION_DOT":-5.3e-7,"MEAN_MOTION_DDOT":0},{"OBJECT_NAME":"ONEWEB-0678","OBJECT_ID":"2023-068E","EPOCH":"2025-12-18T05:16:14.114784","MEAN_MOTION":13.15549544,"ECCENTRICITY":0.00020596,"INCLINATION":87.9007,"RA_OF_ASC_NODE":295.2949,"ARG_OF_PERICENTER":72.6459,"MEAN_ANOMALY":287.4896,"EPHEMERIS_TYPE":0,"CLASSIFICATION_TYPE":"U","NORAD_CAT_ID":56714,"ELEMENT_SET_NO":999,"REV_AT_EPOCH":12549,"BSTAR":0.00024273454,"MEAN_MOTION_DOT":1.04e-6,"MEAN_MOTION_DDOT":0},{"OBJECT_NAME":"ONEWEB-0679","OBJECT_ID":"2023-068F","EPOCH":"2025-12-18T05:15:13.424832","MEAN_MOTION":13.16594718,"ECCENTRICITY":0.00015159,"INCLINATION":87.904,"RA_OF_ASC_NODE":264.7952,"ARG_OF_PERICENTER":94.5634,"MEAN_ANOMALY":265.567,"EPHEMERIS_TYPE":0,"CLASSIFICATION_TYPE":"U","NORAD_CAT_ID":56715,"ELEMENT_SET_NO":999,"REV_AT_EPOCH":12791,"BSTAR":0.00025202247,"MEAN_MOTION_DOT":1.09e-6,"MEAN_MOTION_DDOT":0},{"OBJECT_NAME":"ONEWEB-0680","OBJECT_ID":"2023-068G","EPOCH":"2025-12-18T06:11:27.921984","MEAN_MOTION":13.21826146,"ECCENTRICITY":0.00012809,"INCLINATION":87.9228,"RA_OF_ASC_NODE":280.048,"ARG_OF_PERICENTER":89.6097,"MEAN_ANOMALY":270.5183,"EPHEMERIS_TYPE":0,"CLASSIFICATION_TYPE":"U","NORAD_CAT_ID":56716,"ELEMENT_SET_NO":999,"REV_AT_EPOCH":12719,"BSTAR":8.9415044e-5,"MEAN_MOTION_DOT":5.0e-7,"MEAN_MOTION_DDOT":0},{"OBJECT_NAME":"ONEWEB-0681","OBJECT_ID":"2023-068H","EPOCH":"2025-12-18T05:41:51.371232","MEAN_MOTION":13.21825606,"ECCENTRICITY":0.00026473,"INCLINATION":87.9218,"RA_OF_ASC_NODE":280.0671,"ARG_OF_PERICENTER":93.0937,"MEAN_ANOMALY":267.0499,"EPHEMERIS_TYPE":0,"CLASSIFICATION_TYPE":"U","NORAD_CAT_ID":56717,"ELEMENT_SET_NO":999,"REV_AT_EPOCH":12718,"BSTAR":0.00030621085,"MEAN_MOTION_DOT":1.39e-6,"MEAN_MOTION_DDOT":0},{"OBJECT_NAME":"ONEWEB-0682","OBJECT_ID":"2023-068J","EPOCH":"2025-12-18T05:53:52.772352","MEAN_MOTION":13.15547698,"ECCENTRICITY":0.00014475,"INCLINATION":87.8999,"RA_OF_ASC_NODE":295.3038,"ARG_OF_PERICENTER":90.4868,"MEAN_ANOMALY":269.6428,"EPHEMERIS_TYPE":0,"CLASSIFICATION_TYPE":"U","NORAD_CAT_ID":56718,"ELEMENT_SET_NO":999,"REV_AT_EPOCH":12566,"BSTAR":3.6930144e-5,"MEAN_MOTION_DOT":2.7e-7,"MEAN_MOTION_DDOT":0},{"OBJECT_NAME":"ONEWEB-0683","OBJECT_ID":"2023-068K","EPOCH":"2025-12-18T06:24:40.622112","MEAN_MOTION":13.1555058,"ECCENTRICITY":0.00015618,"INCLINATION":87.9005,"RA_OF_ASC_NODE":295.2841,"ARG_OF_PERICENTER":80.7113,"MEAN_ANOMALY":279.4194,"EPHEMERIS_TYPE":0,"CLASSIFICATION_TYPE":"U","NORAD_CAT_ID":56719,"ELEMENT_SET_NO":999,"REV_AT_EPOCH":12563,"BSTAR":-0.00024420118,"MEAN_MOTION_DOT":-7.9e-7,"MEAN_MOTION_DDOT":0},{"OBJECT_NAME":"ONEWEB-0684","OBJECT_ID":"2023-068L","EPOCH":"2025-12-18T06:36:04.860000","MEAN_MOTION":13.15548202,"ECCENTRICITY":0.00025306,"INCLINATION":87.9005,"RA_OF_ASC_NODE":295.2769,"ARG_OF_PERICENTER":45.3186,"MEAN_ANOMALY":314.815,"EPHEMERIS_TYPE":0,"CLASSIFICATION_TYPE":"U","NORAD_CAT_ID":56720,"ELEMENT_SET_NO":999,"REV_AT_EPOCH":12546,"BSTAR":0.0001362224,"MEAN_MOTION_DOT":6.4e-7,"MEAN_MOTION_DDOT":0},{"OBJECT_NAME":"ONEWEB-0686","OBJECT_ID":"2023-068M","EPOCH":"2025-12-18T06:04:36.338304","MEAN_MOTION":13.15117342,"ECCENTRICITY":7.715e-5,"INCLINATION":87.9034,"RA_OF_ASC_NODE":264.8352,"ARG_OF_PERICENTER":48.9598,"MEAN_ANOMALY":311.1599,"EPHEMERIS_TYPE":0,"CLASSIFICATION_TYPE":"U","NORAD_CAT_ID":56721,"ELEMENT_SET_NO":999,"REV_AT_EPOCH":12790,"BSTAR":0.019718588,"MEAN_MOTION_DOT":7.395e-5,"MEAN_MOTION_DDOT":0},{"OBJECT_NAME":"ONEWEB-0694","OBJECT_ID":"2023-068N","EPOCH":"2025-12-18T06:16:48.319968","MEAN_MOTION":13.16595211,"ECCENTRICITY":0.00012392,"INCLINATION":87.9057,"RA_OF_ASC_NODE":264.7651,"ARG_OF_PERICENTER":81.1615,"MEAN_ANOMALY":278.9656,"EPHEMERIS_TYPE":0,"CLASSIFICATION_TYPE":"U","NORAD_CAT_ID":56722,"ELEMENT_SET_NO":999,"REV_AT_EPOCH":12796,"BSTAR":-0.00026597633,"MEAN_MOTION_DOT":-8.9e-7,"MEAN_MOTION_DDOT":0}]
